1 43116U 18004F   19031.13048719  .00000918  00000-0  42315-4 0  9992
2 43116  97.5116  99.1851 0010091  20.8368 339.3277 15.22796283 58414
1 43116U 18004F   19031.32761910  .00000950  00000-0  43683-4 0  9993
2 43116  97.5116  99.3822 0010071  20.1862 339.9771 15.22796757 58448
1 43116U 18004F   19031.78759285  .00000952  00000-0  43785-4 0  9990
2 43116  97.5116  99.8421 0010025  18.6639 341.4963 15.22797671 58516
1 43116U 18004F   19032.18185520  .00001058  00000-0  48283-4 0  9996
2 43116  97.5115 100.2363 0009998  17.2672 342.8903 15.22799219 58571
1 43116U 18004F   19032.24756538  .00001169  00000-0  53035-4 0  9990
2 43116  97.5115 100.3020 0009991  17.0568 343.1002 15.22800030 58586
1 43116U 18004F   19032.77324898  .00001107  00000-0  50384-4 0  9994
2 43116  97.5114 100.8276 0009942  15.3114 344.8422 15.22800701 58665
1 43116U 18004F   19032.90466966  .00001148  00000-0  52127-4 0  9994
2 43116  97.5114 100.9590 0009932  14.8629 345.2897 15.22801210 58688
1 43116U 18004F   19033.16751093  .00001168  00000-0  52983-4 0  9993
2 43116  97.5113 101.2218 0009906  13.9508 346.2000 15.22801951 58729
1 43116U 18004F   19033.36464177  .00001248  00000-0  56434-4 0  9993
2 43116  97.5113 101.4189 0009881  13.2956 346.8539 15.22802840 58754
1 43116U 18004F   19033.75890417  .00001025  00000-0  46905-4 0  9991
2 43116  97.5112 101.8131 0009841  11.9828 348.1641 15.22802325 58817
1 43116U 18004F   19034.21887533  .00001237  00000-0  55930-4 0  9991
2 43116  97.5111 102.2730 0009796  10.3510 349.7926 15.22804686 58888
1 43116U 18004F   19034.28458552  .00001297  00000-0  58491-4 0  9994
2 43116  97.5111 102.3387 0009790  10.1212 350.0220 15.22805160 58899
1 43116U 18004F   19034.81026712  .00001240  00000-0  56073-4 0  9994
2 43116  97.5110 102.8643 0009731   8.3366 351.8030 15.22806071 58971
1 43116U 18004F   19035.13881784  .00001229  00000-0  55610-4 0  9991
2 43116  97.5109 103.1927 0009692   7.1874 352.9499 15.22806812 59026
1 43116U 18004F   19035.27023833  .00001213  00000-0  54905-4 0  9998
2 43116  97.5109 103.3241 0009677   6.7375 353.3989 15.22806958 59043
1 43116U 18004F   19035.73020909  .00001152  00000-0  52333-4 0  9995
2 43116  97.5108 103.7840 0009626   5.1674 354.9660 15.22807754 59116
1 43116U 18004F   19036.19017901  .00001163  00000-0  52790-4 0  9993
2 43116  97.5107 104.2438 0009584   3.5039 356.6262 15.22809099 59182
1 43116U 18004F   19037.17582847  .00001053  00000-0  48069-4 0  9990
2 43116  97.5105 105.2292 0009484   0.0616   0.0619 15.22811032 59334
1 43116U 18004F   19037.30724843  .00001054  00000-0  48103-4 0  9999
2 43116  97.5105 105.3606 0009465 359.6166   0.5062 15.22811312 59356
1 43116U 18004F   19037.76721743  .00001043  00000-0  47631-4 0  9998
2 43116  97.5104 105.8204 0009427 358.0116   2.1081 15.22812455 59426
1 43116U 18004F   19038.16147658  .00000974  00000-0  44681-4 0  9994
2 43116  97.5102 106.2145 0009388 356.5918   3.5253 15.22813015 59487
1 43116U 18004F   19038.22718645  .00001052  00000-0  48026-4 0  9996
2 43116  97.5102 106.2802 0009382 356.3529   3.7638 15.22813569 59491
1 43116U 18004F   19038.49002565  .00001040  00000-0  47531-4 0  9999
2 43116  97.5102 106.5429 0009348 355.4322   4.6827 15.22814126 59537
1 43116U 18004F   19038.81857475  .00000975  00000-0  44726-4 0  9992
2 43116  97.5102 106.8714 0009322 354.2458   5.8669 15.22814483 59584
1 43116U 18004F   19038.88428452  .00000972  00000-0  44610-4 0  9997
2 43116  97.5101 106.9371 0009314 354.0100   6.1023 15.22814609 59595
1 43116U 18004F   19039.14712346  .00000968  00000-0  44437-4 0  9997
2 43116  97.5101 107.1999 0009288 353.0359   7.0746 15.22815215 59630
1 43116U 18004F   19039.73851093  .00000978  00000-0  44851-4 0  9996
2 43116  97.5100 107.7911 0009226 350.9337   9.1732 15.22816573 59729
1 43116U 18004F   19040.19847848  .00000979  00000-0  44929-4 0  9998
2 43116  97.5099 108.2509 0009180 349.2020  10.9017 15.22817624 59795
1 43116U 18004F   19040.26418791  .00001057  00000-0  48224-4 0  9997
2 43116  97.5099 108.3166 0009176 348.9645  11.1389 15.22818244 59805
1 43116U 18004F   19040.72415542  .00000996  00000-0  45637-4 0  9995
2 43116  97.5099 108.7764 0009127 347.2725  12.8279 15.22818867 59874
1 43116U 18004F   19041.18412231  .00000998  00000-0  45712-4 0  9994
2 43116  97.5098 109.2363 0009085 345.5481  14.5494 15.22819922 59946
1 43116U 18004F   19041.24983218  .00000971  00000-0  44569-4 0  9999
2 43116  97.5098 109.3019 0009077 345.3070  14.7901 15.22819810 59950
1 43116U 18004F   19041.77550844  .00000963  00000-0  44211-4 0  9997
2 43116  97.5098 109.8275 0009028 343.3681  16.7258 15.22820866 60032
1 43116U 18004F   19042.16976544  .00000945  00000-0  43438-4 0  9990
2 43116  97.5097 110.2216 0008996 341.8850  18.2064 15.22821582 60090
1 43116U 18004F   19042.43260373  .00000882  00000-0  40779-4 0  9991
2 43116  97.5097 110.4844 0008966 340.8884  19.2015 15.22821630 60138
1 43116U 18004F   19043.15540726  .00000933  00000-0  42954-4 0  9998
2 43116  97.5096 111.2069 0008907 338.1774  21.9082 15.22823434 60248
1 43116U 18004F   19043.41824493  .00001003  00000-0  45947-4 0  9997
2 43116  97.5096 111.4697 0008882 337.2047  22.8794 15.22824291 60288
1 43116U 18004F   19043.74679180  .00000990  00000-0  45373-4 0  9991
2 43116  97.5095 111.7981 0008851 335.9713  24.1109 15.22824884 60336
1 43116U 18004F   19044.14104781  .00000986  00000-0  45202-4 0  9992
2 43116  97.5094 112.1922 0008816 334.4529  25.6271 15.22825667 60397
1 43116U 18004F   19044.33817581  .00000982  00000-0  45051-4 0  9990
2 43116  97.5094 112.3893 0008795 333.7096  26.3692 15.22826028 60424
1 43116U 18004F   19044.66672201  .00001024  00000-0  46823-4 0  9990
2 43116  97.5094 112.7177 0008764 332.4566  27.6205 15.22827030 60470
1 43116U 18004F   19045.19239585  .00001018  00000-0  46578-4 0  9993
2 43116  97.5093 113.2432 0008724 330.4216  29.6526 15.22828155 60551
1 43116U 18004F   19045.32381444  .00001029  00000-0  47045-4 0  9992
2 43116  97.5093 113.3746 0008708 329.9119  30.1616 15.22828431 60573
1 43116U 18004F   19045.78377844  .00001063  00000-0  48500-4 0  9996
2 43116  97.5092 113.8343 0008671 328.1310  31.9401 15.22829707 60649
1 43116U 18004F   19045.84948762  .00001055  00000-0  48160-4 0  9999
2 43116  97.5091 113.9000 0008665 327.8691  32.2016 15.22829792 60651
1 43116U 18004F   19046.17803356  .00000997  00000-0  45649-4 0  9998
2 43116  97.5091 114.2284 0008642 326.5777  33.4913 15.22830130 60708
1 43116U 18004F   19046.24374268  .00001005  00000-0  46008-4 0  9992
2 43116  97.5091 114.2941 0008634 326.3152  33.7535 15.22830312 60710
1 43116U 18004F   19046.76941579  .00000937  00000-0  43084-4 0  9998
2 43116  97.5090 114.8195 0008595 324.3050  35.7611 15.22830956 60796
1 43116U 18004F   19047.16367013  .00000934  00000-0  42982-4 0  9991
2 43116  97.5089 115.2136 0008572 322.7530  37.3111 15.22831785 60855
1 43116U 18004F   19047.49221554  .00000907  00000-0  41841-4 0  9999
2 43116  97.5088 115.5420 0008540 321.4651  38.5975 15.22832235 60906
1 43116U 18004F   19047.68934258  .00000911  00000-0  42005-4 0  9990
2 43116  97.5088 115.7390 0008528 320.6955  39.3661 15.22832673 60938
1 43116U 18004F   19047.75505154  .00000925  00000-0  42592-4 0  9993
2 43116  97.5088 115.8047 0008537 320.4297  39.6316 15.22832889 60945
1 43116U 18004F   19048.28072369  .00000898  00000-0  41431-4 0  9999
2 43116  97.5087 116.3301 0008495 318.3033  41.7555 15.22833719 61022
1 43116U 18004F   19048.74068630  .00000908  00000-0  41859-4 0  9992
2 43116  97.5086 116.7899 0008457 316.4807  43.5761 15.22834732 61095
1 43116U 18004F   19049.13493973  .00000904  00000-0  41679-4 0  9994
2 43116  97.5084 117.1840 0008430 314.8510  45.2041 15.22835527 61158
1 43116U 18004F   19049.26635738  .00001006  00000-0  46050-4 0  9997
2 43116  97.5084 117.3153 0008420 314.3360  45.7186 15.22836382 61171
1 43116U 18004F   19049.72631954  .00000970  00000-0  44510-4 0  9992
2 43116  97.5083 117.7751 0008383 312.4802  47.5725 15.22837120 61244
1 43116U 18004F   19050.18628126  .00000960  00000-0  44079-4 0  9990
2 43116  97.5082 118.2348 0008357 310.6058  49.4450 15.22838042 61313
1 43116U 18004F   19050.25199017  .00001020  00000-0  46635-4 0  9998
2 43116  97.5082 118.3005 0008353 310.3474  49.7032 15.22838453 61325
1 43116U 18004F   19050.77766038  .00001001  00000-0  45839-4 0  9992
2 43116  97.5081 118.8259 0008316 308.2158  51.8329 15.22839433 61405
1 43116U 18004F   19051.17191259  .00001033  00000-0  47207-4 0  9990
2 43116  97.5080 119.2199 0008302 306.6173  53.4299 15.22840483 61463
1 43116U 18004F   19051.76329142  .00000988  00000-0  45263-4 0  9997
2 43116  97.5079 119.8110 0008264 304.2443  55.8010 15.22841227 61555
1 43116U 18004F   19051.89470867  .00001010  00000-0  46213-4 0  9995
2 43116  97.5079 119.9424 0008258 303.7186  56.3263 15.22841623 61573
1 43116U 18004F   19052.15754316  .00001027  00000-0  46952-4 0  9997
2 43116  97.5078 120.2051 0008249 302.6426  57.4014 15.22842293 61613
1 43116U 18004F   19052.42037770  .00001064  00000-0  48533-4 0  9993
2 43116  97.5078 120.4679 0008241 301.5728  58.4703 15.22842996 61656
1 43116U 18004F   19052.74892058  .00001093  00000-0  49734-4 0  9992
2 43116  97.5078 120.7962 0008223 300.2261  59.8161 15.22843867 61709
1 43116U 18004F   19053.14317204  .00001065  00000-0  48566-4 0  9993
2 43116  97.5077 121.1903 0008207 298.5678  61.4732 15.22844516 61762
1 43116U 18004F   19053.40600660  .00001018  00000-0  46535-4 0  9995
2 43116  97.5077 121.4530 0008189 297.4627  62.5776 15.22844674 61802
1 43116U 18004F   19053.73454942  .00000983  00000-0  45074-4 0  9998
2 43116  97.5076 121.7813 0008176 296.0882  63.9513 15.22845122 61850
1 43116U 18004F   19054.12880045  .00000977  00000-0  44801-4 0  9999
2 43116  97.5075 122.1754 0008165 294.4432  65.5952 15.22845892 61915
1 43116U 18004F   19054.72017697  .00000910  00000-0  41943-4 0  9991
2 43116  97.5074 122.7664 0008139 291.9453  68.0918 15.22846643 62002
